{
  "type": "FeatureCollection",
  "features": [
    {
      "type": "Feature",
      "properties": {
        "norad_id": 66174,
        "name": "HTV-X1",
        "group": "stations",
        "lat": -45.27563041029515,
        "lon": 53.67075465204391,
        "alt_km": 420.0986897578532,
        "timestamp": "2025-12-19T22:41:51.128860+00:00",
        "meta_object_name": "HTV-X1",
        "meta_object_id": "2025-241A",
        "meta_epoch": "2025-12-19T10:35:44.375712",
        "meta_mean_motion": 15.49667075,
        "meta_eccentricity": 0.00031732,
        "meta_inclination": 51.6317,
        "meta_ra_of_asc_node": 109.2912,
        "meta_arg_of_pericenter": 271.328,
        "meta_mean_anomaly": 88.7345,
        "meta_ephemeris_type": 0,
        "meta_classification_type": "U",
        "meta_norad_cat_id": 66174,
        "meta_element_set_no": 999,
        "meta_rev_at_epoch": 51,
        "meta_bstar": 0.00012809493,
        "meta_mean_motion_dot": 6.778e-05,
        "meta_mean_motion_ddot": 0,
        "tle_line1": "1 66174U 25241A   25353.44148583  .00006778  00000+0  12809-3 0  9993",
        "tle_line2": "2 66174  51.6317 109.2912 0003173 271.3280  88.7345 15.49667075   511"
      },
      "geometry": {
        "type": "Point",
        "coordinates": [
          53.67075465204391,
          -45.27563041029515
        ]
      }
    },
    {
      "type": "Feature",
      "properties": {
        "norad_id": 66515,
        "name": "SZ-21 MODULE",
        "group": "stations",
        "lat": -24.934534668160136,
        "lon": -59.680112957615385,
        "alt_km": 377.99909395935083,
        "timestamp": "2025-12-19T22:41:51.128870+00:00",
        "meta_object_name": "SZ-21 MODULE",
        "meta_object_id": "2025-246C",
        "meta_epoch": "2025-12-19T05:59:43.928736",
        "meta_mean_motion": 15.62811821,
        "meta_eccentricity": 0.0005734,
        "meta_inclination": 41.4773,
        "meta_ra_of_asc_node": 336.3242,
        "meta_arg_of_pericenter": 295.0263,
        "meta_mean_anomaly": 64.9981,
        "meta_ephemeris_type": 0,
        "meta_classification_type": "U",
        "meta_norad_cat_id": 66515,
        "meta_element_set_no": 999,
        "meta_rev_at_epoch": 546,
        "meta_bstar": 0.00023433,
        "meta_mean_motion_dot": 0.00021457,
        "meta_mean_motion_ddot": 0,
        "tle_line1": "1 66515U 25246C   25353.24981399  .00021457  00000+0  23433-3 0  9991",
        "tle_line2": "2 66515  41.4773 336.3242 0005734 295.0263  64.9981 15.62811821  5467"
      },
      "geometry": {
        "type": "Point",
        "coordinates": [
          -59.680112957615385,
          -24.934534668160136
        ]
      }
    },
    {
      "type": "Feature",
      "properties": {
        "norad_id": 66645,
        "name": "SHENZHOU-22",
        "group": "stations",
        "lat": -22.197043922531613,
        "lon": -54.56954926378862,
        "alt_km": 394.31255492112814,
        "timestamp": "2025-12-19T22:41:51.128880+00:00",
        "meta_object_name": "SHENZHOU-22",
        "meta_object_id": "2025-272A",
        "meta_epoch": "2025-12-19T09:00:48.563712",
        "meta_mean_motion": 15.59465114,
        "meta_eccentricity": 0.00077296,
        "meta_inclination": 41.4684,
        "meta_ra_of_asc_node": 336.4137,
        "meta_arg_of_pericenter": 89.1398,
        "meta_mean_anomaly": 271.0326,
        "meta_ephemeris_type": 0,
        "meta_classification_type": "U",
        "meta_norad_cat_id": 66645,
        "meta_element_set_no": 999,
        "meta_rev_at_epoch": 26357,
        "meta_bstar": 0.00025572286,
        "meta_mean_motion_dot": 0.00020582,
        "meta_mean_motion_ddot": 0,
        "tle_line1": "1 66645U 25272A   25353.37556208  .00020582  00000+0  25572-3 0  9999",
        "tle_line2": "2 66645  41.4684 336.4137 0007729  89.1398 271.0326 15.59465114263571"
      },
      "geometry": {
        "type": "Point",
        "coordinates": [
          -54.56954926378862,
          -22.197043922531613
        ]
      }
    },
    {
      "type": "Feature",
      "properties": {
        "norad_id": 66664,
        "name": "SOYUZ-MS 28",
        "group": "stations",
        "lat": -45.27560320772865,
        "lon": 53.670827122833956,
        "alt_km": 420.09868960326276,
        "timestamp": "2025-12-19T22:41:51.128892+00:00",
        "meta_object_name": "SOYUZ-MS 28",
        "meta_object_id": "2025-275A",
        "meta_epoch": "2025-12-19T10:35:44.374848",
        "meta_mean_motion": 15.49667075,
        "meta_eccentricity": 0.0003173,
        "meta_inclination": 51.6317,
        "meta_ra_of_asc_node": 109.2912,
        "meta_arg_of_pericenter": 271.328,
        "meta_mean_anomaly": 88.7345,
        "meta_ephemeris_type": 0,
        "meta_classification_type": "U",
        "meta_norad_cat_id": 66664,
        "meta_element_set_no": 999,
        "meta_rev_at_epoch": 348,
        "meta_bstar": 0.00012809,
        "meta_mean_motion_dot": 6.778e-05,
        "meta_mean_motion_ddot": 0,
        "tle_line1": "1 66664U 25275A   25353.44148582  .00006778  00000+0  12809-3 0  9993",
        "tle_line2": "2 66664  51.6317 109.2912 0003173 271.3280  88.7345 15.49667075  3484"
      },
      "geometry": {
        "type": "Point",
        "coordinates": [
          53.670827122833956,
          -45.27560320772865
        ]
      }
    },
    {
      "type": "Feature",
      "properties": {
        "norad_id": 66906,
        "name": "1998-067XS",
        "group": "stations",
        "lat": -4.465602006318929,
        "lon": 103.12245280805895,
        "alt_km": 416.285054749148,
        "timestamp": "2025-12-19T22:41:51.128903+00:00",
        "meta_object_name": "1998-067XS",
        "meta_object_id": "1998-067XS",
        "meta_epoch": "2025-12-19T08:48:14.715072",
        "meta_mean_motion": 15.50914025,
        "meta_eccentricity": 0.0003058,
        "meta_inclination": 51.6312,
        "meta_ra_of_asc_node": 109.5436,
        "meta_arg_of_pericenter": 233.4927,
        "meta_mean_anomaly": 126.5781,
        "meta_ephemeris_type": 0,
        "meta_classification_type": "U",
        "meta_norad_cat_id": 66906,
        "meta_element_set_no": 999,
        "meta_rev_at_epoch": 264,
        "meta_bstar": 0.00035748,
        "meta_mean_motion_dot": 0.0002067,
        "meta_mean_motion_ddot": 0,
        "tle_line1": "1 66906U 98067XS  25353.36683698  .00020670  00000+0  35748-3 0  9998",
        "tle_line2": "2 66906  51.6312 109.5436 0003058 233.4927 126.5781 15.50914025  2645"
      },
      "geometry": {
        "type": "Point",
        "coordinates": [
          103.12245280805895,
          -4.465602006318929
        ]
      }
    },
    {
      "type": "Feature",
      "properties": {
        "norad_id": 66907,
        "name": "1998-067XT",
        "group": "stations",
        "lat": 29.632480602978575,
        "lon": 133.3634456958953,
        "alt_km": 408.07331075563343,
        "timestamp": "2025-12-19T22:41:51.128914+00:00",
        "meta_object_name": "1998-067XT",
        "meta_object_id": "1998-067XT",
        "meta_epoch": "2025-12-19T11:42:50.767776",
        "meta_mean_motion": 15.52255247,
        "meta_eccentricity": 0.0003998,
        "meta_inclination": 51.6306,
        "meta_ra_of_asc_node": 108.8528,
        "meta_arg_of_pericenter": 265.7173,
        "meta_mean_anomaly": 94.336,
        "meta_ephemeris_type": 0,
        "meta_classification_type": "U",
        "meta_norad_cat_id": 66907,
        "meta_element_set_no": 999,
        "meta_rev_at_epoch": 266,
        "meta_bstar": 0.00077339,
        "meta_mean_motion_dot": 0.00047666,
        "meta_mean_motion_ddot": 0,
        "tle_line1": "1 66907U 98067XT  25353.48808759  .00047666  00000+0  77339-3 0  9995",
        "tle_line2": "2 66907  51.6306 108.8528 0003998 265.7173  94.3360 15.52255247  2660"
      },
      "geometry": {
        "type": "Point",
        "coordinates": [
          133.3634456958953,
          29.632480602978575
        ]
      }
    },
    {
      "type": "Feature",
      "properties": {
        "norad_id": 66908,
        "name": "1998-067XU",
        "group": "stations",
        "lat": 32.57288775803809,
        "lon": 136.97410356574903,
        "alt_km": 407.4866420488079,
        "timestamp": "2025-12-19T22:41:51.128924+00:00",
        "meta_object_name": "1998-067XU",
        "meta_object_id": "1998-067XU",
        "meta_epoch": "2025-12-18T14:03:56.443680",
        "meta_mean_motion": 15.52259493,
        "meta_eccentricity": 0.00039838,
        "meta_inclination": 51.6306,
        "meta_ra_of_asc_node": 113.3296,
        "meta_arg_of_pericenter": 260.0245,
        "meta_mean_anomaly": 100.0295,
        "meta_ephemeris_type": 0,
        "meta_classification_type": "U",
        "meta_norad_cat_id": 66908,
        "meta_element_set_no": 999,
        "meta_rev_at_epoch": 252,
        "meta_bstar": 0.00087908108,
        "meta_mean_motion_dot": 0.00054298,
        "meta_mean_motion_ddot": 0,
        "tle_line1": "1 66908U 98067XU  25352.58606995  .00054298  00000+0  87908-3 0  9996",
        "tle_line2": "2 66908  51.6306 113.3296 0003983 260.0245 100.0295 15.52259493  2520"
      },
      "geometry": {
        "type": "Point",
        "coordinates": [
          136.97410356574903,
          32.57288775803809
        ]
      }
    }
  ]
}